[{"OBJECT_NAME":"STARLINK-30073","OBJECT_ID":"2023-079T","EPOCH":"2026-03-09T22:00:01.999584","MEAN_MOTION":15.27575359,"ECCENTRICITY":0.00020534,"INCLINATION":43.0005,"RA_OF_ASC_NODE":291.0924,"ARG_OF_PERICENTER":288.9142,"MEAN_ANOMALY":240.4544,"EPHEMERIS_TYPE":0,"CLASSIFICATION_TYPE":"U","NORAD_CAT_ID":56840,"ELEMENT_SET_NO":999,"REV_AT_EPOCH":574,"BSTAR":0.00066101027,"MEAN_MOTION_DOT":0.0001797,"MEAN_MOTION_DDOT":0},{"OBJECT_NAME":"STARLINK-30415","OBJECT_ID":"2023-138P","EPOCH":"2026-03-09T22:00:01.999584","MEAN_MOTION":15.2671819,"ECCENTRICITY":0.00015123,"INCLINATION":42.9998,"RA_OF_ASC_NODE":233.1734,"ARG_OF_PERICENTER":292.5363,"MEAN_ANOMALY":288.6623,"EPHEMERIS_TYPE":0,"CLASSIFICATION_TYPE":"U","NORAD_CAT_ID":57821,"ELEMENT_SET_NO":999,"REV_AT_EPOCH":577,"BSTAR":0.0028216593,"MEAN_MOTION_DOT":0.00076163,"MEAN_MOTION_DDOT":0}]
